start=new Date('2021-12-09T00:00:00.000Z').valueOf();
sats=[{"RA_OF_ASC_NODE":"245.7104","COUNTRY_CODE":"US","BSTAR":"-0.00027952000000","MEAN_MOTION_DDOT":"0.0000000000000","EPOCH":"2021-12-08T22:00:00.999936","PERIAPSIS":"357.131","TLE_LINE2":"2 49147  69.9980 245.7104 0003610 273.4914 207.8248 15.69767927  3688","CENTER_NAME":"EARTH","REV_AT_EPOCH":"368","SITE":"AFWTR","TIME_SYSTEM":"UTC","NORAD_CAT_ID":"49147","RCS_SIZE":"LARGE","MEAN_MOTION_DOT":"-0.00033475","OBJECT_TYPE":"PAYLOAD","OBJECT_ID":"2021-082T","SEMIMAJOR_AXIS":"6737.698","EPHEMERIS_TYPE":"0","TLE_LINE1":"1 49147U 21082T   21342.91667824 -.00033475  00000-0 -27952-3 0  9995","MEAN_ELEMENT_THEORY":"SGP4","CLASSIFICATION_TYPE":"U","DECAY_DATE":null,"PERIOD":"91.733","ECCENTRICITY":"0.00036100","ELEMENT_SET_NO":"999","LAUNCH_DATE":"2021-09-14","INCLINATION":"69.9980","FILE":"3235972","REF_FRAME":"TEME","MEAN_MOTION":"15.69767927","MEAN_ANOMALY":"207.8248","ARG_OF_PERICENTER":"273.4914","OBJECT_NAME":"STARLINK-3071","APOAPSIS":"361.995","GP_ID":"191366217"},{"REF_FRAME":"TEME","FILE":"3235972","INCLINATION":"69.9984","LAUNCH_DATE":"2021-09-14","ELEMENT_SET_NO":"999","ARG_OF_PERICENTER":"274.3112","MEAN_ANOMALY":"217.6039","MEAN_MOTION":"15.69783716","APOAPSIS":"361.547","OBJECT_NAME":"STARLINK-3048","GP_ID":"191366753","MEAN_ELEMENT_THEORY":"SGP4","TLE_LINE1":"1 49148U 21082U   21342.91667824 -.00031804  00000-0 -26529-3 0  9999","EPHEMERIS_TYPE":"0","PERIOD":"91.732","DECAY_DATE":null,"CLASSIFICATION_TYPE":"U","ECCENTRICITY":"0.00030110","SITE":"AFWTR","REV_AT_EPOCH":"368","RCS_SIZE":"LARGE","TIME_SYSTEM":"UTC","NORAD_CAT_ID":"49148","OBJECT_TYPE":"PAYLOAD","MEAN_MOTION_DOT":"-0.00031804","SEMIMAJOR_AXIS":"6737.653","OBJECT_ID":"2021-082U","MEAN_MOTION_DDOT":"0.0000000000000","BSTAR":"-0.00026529000000","COUNTRY_CODE":"US","RA_OF_ASC_NODE":"245.7067","TLE_LINE2":"2 49148  69.9984 245.7067 0003011 274.3112 217.6039 15.69783716  3687","PERIAPSIS":"357.489","EPOCH":"2021-12-08T22:00:00.999936","CENTER_NAME":"EARTH"},{"CLASSIFICATION_TYPE":"U","DECAY_DATE":null,"PERIOD":"94.310","ECCENTRICITY":"0.00033310","EPHEMERIS_TYPE":"0","TLE_LINE1":"1 49149U 21082V   21342.91667824 -.00659606  00000-0 -26840-1 0  9990","MEAN_ELEMENT_THEORY":"SGP4","OBJECT_NAME":"STARLINK-3053","APOAPSIS":"487.451","GP_ID":"191365858","LAUNCH_DATE":"2021-09-14","ELEMENT_SET_NO":"999","FILE":"3235972","REF_FRAME":"TEME","INCLINATION":"70.0002","MEAN_MOTION":"15.26874462","MEAN_ANOMALY":"12.5096","ARG_OF_PERICENTER":"279.5764","CENTER_NAME":"EARTH","COUNTRY_CODE":"US","RA_OF_ASC_NODE":"248.2959","MEAN_MOTION_DDOT":"0.0000000000000","BSTAR":"-0.02684000000000","PERIAPSIS":"482.878","EPOCH":"2021-12-08T22:00:00.999936","TLE_LINE2":"2 49149  70.0002 248.2959 0003331 279.5764  12.5096 15.26874462  3659","MEAN_MOTION_DOT":"-0.00659606","OBJECT_TYPE":"PAYLOAD","OBJECT_ID":"2021-082V","SEMIMAJOR_AXIS":"6863.300","REV_AT_EPOCH":"365","SITE":"AFWTR","TIME_SYSTEM":"UTC","NORAD_CAT_ID":"49149","RCS_SIZE":"LARGE"},{"MEAN_ELEMENT_THEORY":"SGP4","EPHEMERIS_TYPE":"0","TLE_LINE1":"1 49150U 21082W   21342.91667824 -.00659877  00000-0 -26782-1 0  9997","ECCENTRICITY":"0.00033890","DECAY_DATE":null,"PERIOD":"94.305","CLASSIFICATION_TYPE":"U","ARG_OF_PERICENTER":"281.6166","MEAN_ANOMALY":"26.1889","MEAN_MOTION":"15.26959708","FILE":"3235972","INCLINATION":"70.0002","REF_FRAME":"TEME","ELEMENT_SET_NO":"999","LAUNCH_DATE":"2021-09-14","GP_ID":"191366037","APOAPSIS":"487.235","OBJECT_NAME":"STARLINK-3104","TLE_LINE2":"2 49150  70.0002 248.2956 0003389 281.6166  26.1889 15.26959708  3659","EPOCH":"2021-12-08T22:00:00.999936","PERIAPSIS":"482.583","BSTAR":"-0.02678200000000","MEAN_MOTION_DDOT":"0.0000000000000","RA_OF_ASC_NODE":"248.2956","COUNTRY_CODE":"US","CENTER_NAME":"EARTH","RCS_SIZE":"LARGE","NORAD_CAT_ID":"49150","TIME_SYSTEM":"UTC","SITE":"AFWTR","REV_AT_EPOCH":"365","SEMIMAJOR_AXIS":"6863.044","OBJECT_ID":"2021-082W","MEAN_MOTION_DOT":"-0.00659877","OBJECT_TYPE":"PAYLOAD"},{"EPHEMERIS_TYPE":"0","TLE_LINE1":"1 49151U 21082X   21342.91667824 -.00031455  00000-0 -26260-3 0  9997","MEAN_ELEMENT_THEORY":"SGP4","CLASSIFICATION_TYPE":"U","PERIOD":"91.734","DECAY_DATE":null,"ECCENTRICITY":"0.00033340","LAUNCH_DATE":"2021-09-14","ELEMENT_SET_NO":"999","REF_FRAME":"TEME","FILE":"3235972","INCLINATION":"69.9975","MEAN_MOTION":"15.69758786","MEAN_ANOMALY":"219.8012","ARG_OF_PERICENTER":"274.3633","OBJECT_NAME":"STARLINK-3102","APOAPSIS":"361.836","GP_ID":"191366575","COUNTRY_CODE":"US","RA_OF_ASC_NODE":"245.6953","MEAN_MOTION_DDOT":"0.0000000000000","BSTAR":"-0.00026260000000","PERIAPSIS":"357.343","EPOCH":"2021-12-08T22:00:00.999936","TLE_LINE2":"2 49151  69.9975 245.6953 0003334 274.3633 219.8012 15.69758786  3684","CENTER_NAME":"EARTH","REV_AT_EPOCH":"368","SITE":"AFWTR","NORAD_CAT_ID":"49151","TIME_SYSTEM":"UTC","RCS_SIZE":"LARGE","OBJECT_TYPE":"PAYLOAD","MEAN_MOTION_DOT":"-0.00031455","OBJECT_ID":"2021-082X","SEMIMAJOR_AXIS":"6737.724"},{"MEAN_ELEMENT_THEORY":"SGP4","EPHEMERIS_TYPE":"0","TLE_LINE1":"1 49152U 21082Y   21342.91667824 -.00030724  00000-0 -25617-3 0  9991","ECCENTRICITY":"0.00034570","PERIOD":"91.732","DECAY_DATE":null,"CLASSIFICATION_TYPE":"U","ARG_OF_PERICENTER":"275.3430","MEAN_ANOMALY":"227.2413","MEAN_MOTION":"15.69782880","FILE":"3235972","INCLINATION":"69.9982","REF_FRAME":"TEME","LAUNCH_DATE":"2021-09-14","ELEMENT_SET_NO":"999","GP_ID":"191366397","APOAPSIS":"361.849","OBJECT_NAME":"STARLINK-3081","TLE_LINE2":"2 49152  69.9982 245.6918 0003457 275.3430 227.2413 15.69782880  3686","PERIAPSIS":"357.191","EPOCH":"2021-12-08T22:00:00.999936","MEAN_MOTION_DDOT":"0.0000000000000","BSTAR":"-0.00025617000000","COUNTRY_CODE":"US","RA_OF_ASC_NODE":"245.6918","CENTER_NAME":"EARTH","RCS_SIZE":"LARGE","NORAD_CAT_ID":"49152","TIME_SYSTEM":"UTC","SITE":"AFWTR","REV_AT_EPOCH":"368","SEMIMAJOR_AXIS":"6737.655","OBJECT_ID":"2021-082Y","OBJECT_TYPE":"PAYLOAD","MEAN_MOTION_DOT":"-0.00030724"},{"CENTER_NAME":"EARTH","RA_OF_ASC_NODE":"245.6980","COUNTRY_CODE":"US","BSTAR":"-0.00465660000000","MEAN_MOTION_DDOT":"0.0000000000000","EPOCH":"2021-12-08T22:00:00.999936","PERIAPSIS":"356.801","TLE_LINE2":"2 49153  69.9994 245.6980 0003381 273.5602 224.7865 15.69937135  3684","OBJECT_TYPE":"PAYLOAD","MEAN_MOTION_DOT":"-0.00526704","OBJECT_ID":"2021-082Z","SEMIMAJOR_AXIS":"6737.214","REV_AT_EPOCH":"368","SITE":"AFWTR","NORAD_CAT_ID":"49153","TIME_SYSTEM":"UTC","RCS_SIZE":"LARGE","CLASSIFICATION_TYPE":"U","PERIOD":"91.723","DECAY_DATE":null,"ECCENTRICITY":"0.00033810","EPHEMERIS_TYPE":"0","TLE_LINE1":"1 49153U 21082Z   21342.91667824 -.00526704  00000-0 -46566-2 0  9995","MEAN_ELEMENT_THEORY":"SGP4","OBJECT_NAME":"STARLINK-3072","APOAPSIS":"361.357","GP_ID":"191365501","ELEMENT_SET_NO":"999","LAUNCH_DATE":"2021-09-14","REF_FRAME":"TEME","FILE":"3235972","INCLINATION":"69.9994","MEAN_MOTION":"15.69937135","ARG_OF_PERICENTER":"273.5602","MEAN_ANOMALY":"224.7865"},{"LAUNCH_DATE":"2021-09-14","ELEMENT_SET_NO":"999","REF_FRAME":"TEME","FILE":"3235797","INCLINATION":"69.9987","MEAN_MOTION":"15.69764576","MEAN_ANOMALY":"228.9899","ARG_OF_PERICENTER":"275.8299","OBJECT_NAME":"STARLINK-3068","APOAPSIS":"361.922","GP_ID":"191339044","EPHEMERIS_TYPE":"0","TLE_LINE1":"1 49154U 21082AA  21342.91667824 -.00049018  00000-0 -41096-3 0  9998","MEAN_ELEMENT_THEORY":"SGP4","CLASSIFICATION_TYPE":"U","PERIOD":"91.734","DECAY_DATE":null,"ECCENTRICITY":"0.00034870","REV_AT_EPOCH":"1464","SITE":"AFWTR","NORAD_CAT_ID":"49154","TIME_SYSTEM":"UTC","RCS_SIZE":"LARGE","MEAN_MOTION_DOT":"-0.00049018","OBJECT_TYPE":"PAYLOAD","OBJECT_ID":"2021-082AA","SEMIMAJOR_AXIS":"6737.708","COUNTRY_CODE":"US","RA_OF_ASC_NODE":"245.6927","MEAN_MOTION_DDOT":"0.0000000000000","BSTAR":"-0.00041096000000","PERIAPSIS":"357.223","EPOCH":"2021-12-08T22:00:00.999936","TLE_LINE2":"2 49154  69.9987 245.6927 0003487 275.8299 228.9899 15.69764576 14640","CENTER_NAME":"EARTH"},{"OBJECT_NAME":"STARLINK-3060","APOAPSIS":"362.212","GP_ID":"191366218","ELEMENT_SET_NO":"999","LAUNCH_DATE":"2021-09-14","REF_FRAME":"TEME","FILE":"3235972","INCLINATION":"69.9974","MEAN_MOTION":"15.69734854","MEAN_ANOMALY":"218.6637","ARG_OF_PERICENTER":"281.8435","CLASSIFICATION_TYPE":"U","PERIOD":"91.735","DECAY_DATE":null,"ECCENTRICITY":"0.00037910","EPHEMERIS_TYPE":"0","TLE_LINE1":"1 49155U 21082AB  21342.91667824 -.00031113  00000-0 -25994-3 0  9995","MEAN_ELEMENT_THEORY":"SGP4","OBJECT_TYPE":"PAYLOAD","MEAN_MOTION_DOT":"-0.00031113","OBJECT_ID":"2021-082AB","SEMIMAJOR_AXIS":"6737.793","REV_AT_EPOCH":"368","SITE":"AFWTR","NORAD_CAT_ID":"49155","TIME_SYSTEM":"UTC","RCS_SIZE":"LARGE","CENTER_NAME":"EARTH","RA_OF_ASC_NODE":"245.6883","COUNTRY_CODE":"US","BSTAR":"-0.00025994000000","MEAN_MOTION_DDOT":"0.0000000000000","EPOCH":"2021-12-08T22:00:00.999936","PERIAPSIS":"357.103","TLE_LINE2":"2 49155  69.9974 245.6883 0003791 281.8435 218.6637 15.69734854  3689"},{"EPOCH":"2021-12-08T22:00:00.999936","PERIAPSIS":"357.214","TLE_LINE2":"2 49156  69.9983 245.6749 0003400 275.2478 235.8784 15.69788286  3684","RA_OF_ASC_NODE":"245.6749","COUNTRY_CODE":"US","BSTAR":"-0.00022272000000","MEAN_MOTION_DDOT":"0.0000000000000","CENTER_NAME":"EARTH","NORAD_CAT_ID":"49156","TIME_SYSTEM":"UTC","RCS_SIZE":"LARGE","REV_AT_EPOCH":"368","SITE":"AFWTR","OBJECT_ID":"2021-082AC","SEMIMAJOR_AXIS":"6737.640","MEAN_MOTION_DOT":"-0.00026758","OBJECT_TYPE":"PAYLOAD","EPHEMERIS_TYPE":"0","TLE_LINE1":"1 49156U 21082AC  21342.91667824 -.00026758  00000-0 -22272-3 0  9991","MEAN_ELEMENT_THEORY":"SGP4","ECCENTRICITY":"0.00034000","CLASSIFICATION_TYPE":"U","DECAY_DATE":null,"PERIOD":"91.732","MEAN_MOTION":"15.69788286","ARG_OF_PERICENTER":"275.2478","MEAN_ANOMALY":"235.8784","ELEMENT_SET_NO":"999","LAUNCH_DATE":"2021-09-14","REF_FRAME":"TEME","FILE":"3235972","INCLINATION":"69.9983","GP_ID":"191366754","OBJECT_NAME":"STARLINK-3085","APOAPSIS":"361.796"}];
